[{"OBJECT_NAME":"RESURS-P 5","OBJECT_ID":"2024-250A","EPOCH":"2026-03-09T23:31:56.908992","MEAN_MOTION":15.32839945,"ECCENTRICITY":0.00026027,"INCLINATION":97.276,"RA_OF_ASC_NODE":355.9792,"ARG_OF_PERICENTER":63.1234,"MEAN_ANOMALY":297.0274,"EPHEMERIS_TYPE":0,"CLASSIFICATION_TYPE":"U","NORAD_CAT_ID":62430,"ELEMENT_SET_NO":999,"REV_AT_EPOCH":6735,"BSTAR":0.00015600887,"MEAN_MOTION_DOT":4.871e-5,"MEAN_MOTION_DDOT":0},{"OBJECT_NAME":"STARLINK-34902","OBJECT_ID":"2025-189D","EPOCH":"2026-03-09T14:43:47.990496","MEAN_MOTION":15.30191534,"ECCENTRICITY":0.0001031,"INCLINATION":53.1578,"RA_OF_ASC_NODE":207.2057,"ARG_OF_PERICENTER":75.6087,"MEAN_ANOMALY":284.5028,"EPHEMERIS_TYPE":0,"CLASSIFICATION_TYPE":"U","NORAD_CAT_ID":65326,"ELEMENT_SET_NO":999,"REV_AT_EPOCH":3109,"BSTAR":0.00092347,"MEAN_MOTION_DOT":0.00027084,"MEAN_MOTION_DDOT":0}]
